OBJECT_NAME,OBJECT_ID,EPOCH,MEAN_MOTION,ECCENTRICITY,INCLINATION,RA_OF_ASC_NODE,ARG_OF_PERICENTER,MEAN_ANOMALY,EPHEMERIS_TYPE,CLASSIFICATION_TYPE,NORAD_CAT_ID,ELEMENT_SET_NO,REV_AT_EPOCH,BSTAR,MEAN_MOTION_DOT,MEAN_MOTION_DDOT
ONEWEB-0473,2022-012AH,2026-06-19T14:54:16.333632,13.10263220,.00018236,87.8822,35.7918,81.4115,278.7219,0,U,51653,999,20962,-.75465581E-3,-.25E-5,0
ONEWEB-0474,2022-012AJ,2026-06-19T14:42:12.990240,13.10298148,.00015443,87.8839,35.7780,75.4996,284.6302,0,U,51654,999,20961,.18221558E-2,.648E-5,0
ONEWEB-0475,2022-012AK,2026-06-19T13:49:58.285920,13.17648599,.0001418,87.9132,5.3973,71.2312,288.8974,0,U,51655,999,21400,-.63115682E-4,-.12E-6,0
ONEWEB-0490,2022-138A,2026-06-20T07:39:12.308544,13.19725204,.00017387,87.9181,304.3430,103.0775,257.0551,0,U,54113,999,17724,.24779458E-3,.112E-5,0
ONEWEB-0492,2022-138B,2026-06-20T02:48:04.311648,13.19725581,.00018852,87.9173,304.3845,107.4898,252.6441,0,U,54114,999,17722,-.53800892E-4,-.9E-7,0
ONEWEB-0495,2022-138C,2026-06-19T20:48:41.783328,13.19725242,.00013491,87.9171,304.4367,113.5311,246.5964,0,U,54115,999,17717,.14036579E-3,.69E-6,0
ONEWEB-0497,2022-138D,2026-06-19T21:06:53.587296,13.19724845,.00018123,87.9180,304.4262,101.5429,258.5908,0,U,54116,999,17716,.1051023E-3,.55E-6,0
ONEWEB-0499,2022-138E,2026-06-19T20:43:00.201792,13.19726719,.00016244,87.9171,304.4385,99.5670,260.5646,0,U,54117,999,17717,.1306994E-3,.65E-6,0
ONEWEB-0500,2022-138F,2026-06-19T20:46:25.198752,13.19717827,.00019567,87.9172,304.4320,104.9617,255.1733,0,U,54118,999,17718,.34516532E-2,.1395E-4,0
ONEWEB-0501,2022-138G,2026-06-20T06:35:31.058592,13.19723446,.00014818,87.9182,304.3505,107.8553,252.2741,0,U,54119,999,17721,-.28248903E-4,.2E-7,0
ONEWEB-0502,2022-138H,2026-06-19T21:09:09.445248,13.19724235,.0001601,87.9181,304.4180,97.5848,262.5467,0,U,54120,999,17718,.1469776E-3,.72E-6,0
ONEWEB-0503,2022-138J,2026-06-19T20:53:14.768448,13.19724487,.00019154,87.9184,304.4261,91.3721,268.7631,0,U,54121,999,17717,.77710709E-4,.44E-6,0
ONEWEB-0504,2022-138K,2026-06-19T22:24:13.847040,13.19724982,.00016383,87.9182,304.4183,97.5498,262.5821,0,U,54122,999,17719,.96256653E-4,.51E-6,0
ONEWEB-0505,2022-138L,2026-06-20T07:25:33.604608,13.19725549,.00013377,87.9185,304.3437,102.8807,257.2475,0,U,54123,999,17722,.27302464E-3,.122E-5,0
ONEWEB-0506,2022-138M,2026-06-20T06:49:09.431616,13.19723748,.00015718,87.9181,304.3466,103.6037,256.5271,0,U,54124,999,17721,-.13172025E-3,-.4E-6,0
ONEWEB-0507,2022-138N,2026-06-20T07:18:44.252640,13.19725690,.00017045,87.9173,304.3542,103.3433,256.7890,0,U,54125,999,17726,.14928169E-3,.73E-6,0
ONEWEB-0508,2022-138P,2026-06-20T07:14:10.762944,13.19724333,.0001597,87.9171,304.3545,110.9442,249.1862,0,U,54126,999,17724,-.18342431E-4,.6E-7,0
ONEWEB-0509,2022-138Q,2026-06-19T21:31:54.039936,13.19725652,.00017362,87.9183,304.4248,101.6345,258.4983,0,U,54127,999,17716,.10045886E-3,.53E-6,0
ONEWEB-0510,2022-138R,2026-06-20T05:42:47.151072,13.20773094,.0002389,87.9199,273.8279,93.8708,266.2699,0,U,54128,999,17968,.21921575E-3,.102E-5,0
ONEWEB-0511,2022-138S,2026-06-19T21:27:21.598272,13.19726114,.00016842,87.9180,304.4280,91.6438,268.4888,0,U,54129,999,17719,.35006865E-4,.27E-6,0
ONEWEB-0512,2022-138T,2026-06-19T21:15:58.918176,13.19725442,.00015368,87.9170,304.4344,98.3870,261.7437,0,U,54130,999,17716,.12556567E-3,.63E-6,0
ONEWEB-0513,2022-138U,2026-06-20T06:28:07.629600,13.20268497,.00010064,87.9181,304.3019,81.1137,279.0110,0,U,54131,999,17712,.14801959E-3,.73E-6,0
ONEWEB-0514,2022-138V,2026-06-20T06:44:36.648672,13.19724959,.00019891,87.9183,304.3500,96.7672,263.3687,0,U,54132,999,17723,.11707853E-4,.18E-6,0
ONEWEB-0515,2022-138W,2026-06-20T07:12:29.048544,13.20770791,.000279,87.9202,273.8102,107.7794,252.3644,0,U,54133,999,17971,.21602263E-3,.101E-5,0
ONEWEB-0516,2022-138X,2026-06-19T21:02:19.735584,13.19725233,.00018677,87.9171,304.4366,104.1159,256.0182,0,U,54134,999,17718,.24952224E-4,.23E-6,0
ONEWEB-0517,2022-138Y,2026-06-20T07:27:49.618944,13.19725280,.00019084,87.9180,304.3425,89.9100,270.2251,0,U,54135,999,17724,.29980743E-3,.133E-5,0
ONEWEB-0518,2022-138Z,2026-06-19T21:00:04.464288,13.19727781,.00018883,87.9171,304.4388,105.6413,254.4928,0,U,54136,999,17718,.11990085E-3,.61E-6,0
ONEWEB-0519,2022-138AA,2026-06-19T21:36:27.569376,13.19726547,.00018881,87.9184,304.4253,92.9854,267.1495,0,U,54137,999,17719,-.98527031E-4,-.26E-6,0
ONEWEB-0520,2022-138AB,2026-06-19T22:26:30.249312,13.19724992,.00016429,87.9181,304.4185,103.8776,256.2540,0,U,54138,999,17718,.88839156E-4,.49E-6,0
ONEWEB-0521,2022-138AC,2026-06-20T02:52:36.613344,13.19724963,.00019206,87.9183,304.3703,92.4753,267.6599,0,U,54139,999,17715,-.29484823E-4,.1E-7,0
