ONEWEB-0473             
1 51653U 22012AH  26170.62102238 -.00000250  00000+0 -75466-3 0  9996
2 51653  87.8822  35.7918 0001823  81.4115 278.7219 13.10263220209629
ONEWEB-0474             
1 51654U 22012AJ  26170.61265035  .00000648  00000+0  18222-2 0  9996
2 51654  87.8839  35.7780 0001544  75.4996 284.6302 13.10298148209610
ONEWEB-0475             
1 51655U 22012AK  26170.57636905 -.00000012  00000+0 -63116-4 0  9991
2 51655  87.9132   5.3973 0001418  71.2312 288.8974 13.17648599214007
ONEWEB-0490             
1 54113U 22138A   26171.31889246  .00000112  00000+0  24779-3 0  9993
2 54113  87.9181 304.3430 0001738 103.0775 257.0551 13.19725204177249
ONEWEB-0492             
1 54114U 22138B   26171.11671657 -.00000009  00000+0 -53801-4 0  9993
2 54114  87.9173 304.3845 0001885 107.4898 252.6441 13.19725581177223
ONEWEB-0495             
1 54115U 22138C   26170.86715027  .00000069  00000+0  14037-3 0  9996
2 54115  87.9171 304.4367 0001349 113.5311 246.5964 13.19725242177175
ONEWEB-0497             
1 54116U 22138D   26170.87978689  .00000055  00000+0  10510-3 0  9990
2 54116  87.9180 304.4262 0001812 101.5429 258.5908 13.19724845177160
ONEWEB-0499             
1 54117U 22138E   26170.86319678  .00000065  00000+0  13070-3 0  9992
2 54117  87.9171 304.4385 0001624  99.5670 260.5646 13.19726719177177
ONEWEB-0500             
1 54118U 22138F   26170.86556943  .00001395  00000+0  34517-2 0  9996
2 54118  87.9172 304.4320 0001956 104.9617 255.1733 13.19717827177186
ONEWEB-0501             
1 54119U 22138G   26171.27466503  .00000002  00000+0 -28249-4 0  9997
2 54119  87.9182 304.3505 0001481 107.8553 252.2741 13.19723446177211
ONEWEB-0502             
1 54120U 22138H   26170.88135932  .00000072  00000+0  14698-3 0  9992
2 54120  87.9181 304.4180 0001601  97.5848 262.5467 13.19724235177180
ONEWEB-0503             
1 54121U 22138J   26170.87030982  .00000044  00000+0  77711-4 0  9996
2 54121  87.9184 304.4261 0001915  91.3721 268.7631 13.19724487177173
ONEWEB-0504             
1 54122U 22138K   26170.93349360  .00000051  00000+0  96257-4 0  9991
2 54122  87.9182 304.4183 0001638  97.5498 262.5821 13.19724982177191
ONEWEB-0505             
1 54123U 22138L   26171.30941672  .00000122  00000+0  27302-3 0  9991
2 54123  87.9185 304.3437 0001337 102.8807 257.2475 13.19725549177226
ONEWEB-0506             
1 54124U 22138M   26171.28413694 -.00000040  00000+0 -13172-3 0  9998
2 54124  87.9181 304.3466 0001571 103.6037 256.5271 13.19723748177213
ONEWEB-0507             
1 54125U 22138N   26171.30467885  .00000073  00000+0  14928-3 0  9997
2 54125  87.9173 304.3542 0001704 103.3433 256.7890 13.19725690177267
ONEWEB-0508             
1 54126U 22138P   26171.30151346  .00000006  00000+0 -18342-4 0  9992
2 54126  87.9171 304.3545 0001597 110.9442 249.1862 13.19724333177249
ONEWEB-0509             
1 54127U 22138Q   26170.89715324  .00000053  00000+0  10046-3 0  9991
2 54127  87.9183 304.4248 0001736 101.6345 258.4983 13.19725652177161
ONEWEB-0510             
1 54128U 22138R   26171.23804573  .00000102  00000+0  21922-3 0  9996
2 54128  87.9199 273.8279 0002389  93.8708 266.2699 13.20773094179687
ONEWEB-0511             
1 54129U 22138S   26170.89399998  .00000027  00000+0  35007-4 0  9994
2 54129  87.9180 304.4280 0001684  91.6438 268.4888 13.19726114177191
ONEWEB-0512             
1 54130U 22138T   26170.88609859  .00000063  00000+0  12557-3 0  9999
2 54130  87.9170 304.4344 0001536  98.3870 261.7437 13.19725442177169
ONEWEB-0513             
1 54131U 22138U   26171.26953275  .00000073  00000+0  14802-3 0  9993
2 54131  87.9181 304.3019 0001006  81.1137 279.0110 13.20268497177128
ONEWEB-0514             
1 54132U 22138V   26171.28097973  .00000018  00000+0  11708-4 0  9992
2 54132  87.9183 304.3500 0001989  96.7672 263.3687 13.19724959177237
ONEWEB-0515             
1 54133U 22138W   26171.30033621  .00000101  00000+0  21602-3 0  9992
2 54133  87.9202 273.8102 0002790 107.7794 252.3644 13.20770791179710
ONEWEB-0516             
1 54134U 22138X   26170.87661731  .00000023  00000+0  24952-4 0  9998
2 54134  87.9171 304.4366 0001867 104.1159 256.0182 13.19725233177185
ONEWEB-0517             
1 54135U 22138Y   26171.31099096  .00000133  00000+0  29981-3 0  9996
2 54135  87.9180 304.3425 0001908  89.9100 270.2251 13.19725280177247
ONEWEB-0518             
1 54136U 22138Z   26170.87505167  .00000061  00000+0  11990-3 0  9999
2 54136  87.9171 304.4388 0001888 105.6413 254.4928 13.19727781177183
ONEWEB-0519             
1 54137U 22138AA  26170.90031909 -.00000026  00000+0 -98527-4 0  9997
2 54137  87.9184 304.4253 0001888  92.9854 267.1495 13.19726547177196
ONEWEB-0520             
1 54138U 22138AB  26170.93507233  .00000049  00000+0  88839-4 0  9997
2 54138  87.9181 304.4185 0001642 103.8776 256.2540 13.19724992177182
ONEWEB-0521             
1 54139U 22138AC  26171.11986821  .00000001  00000+0 -29485-4 0  9994
2 54139  87.9183 304.3703 0001920  92.4753 267.6599 13.19724963177152
